[{"OBJECT_NAME":"IRIDIUM 113","OBJECT_ID":"2017-039A","EPOCH":"2026-03-09T21:21:34.497504","MEAN_MOTION":14.34222091,"ECCENTRICITY":0.00022411,"INCLINATION":86.4028,"RA_OF_ASC_NODE":3.6669,"ARG_OF_PERICENTER":81.1883,"MEAN_ANOMALY":278.9567,"EPHEMERIS_TYPE":0,"CLASSIFICATION_TYPE":"U","NORAD_CAT_ID":42803,"ELEMENT_SET_NO":999,"REV_AT_EPOCH":45695,"BSTAR":0.00014821747,"MEAN_MOTION_DOT":4.35e-6,"MEAN_MOTION_DDOT":0},{"OBJECT_NAME":"COSMOS 1275 DEB","OBJECT_ID":"1981-053CM","EPOCH":"2026-03-09T16:51:32.607072","MEAN_MOTION":14.31375224,"ECCENTRICITY":0.00190473,"INCLINATION":82.9309,"RA_OF_ASC_NODE":181.6486,"ARG_OF_PERICENTER":69.2823,"MEAN_ANOMALY":291.0404,"EPHEMERIS_TYPE":0,"CLASSIFICATION_TYPE":"U","NORAD_CAT_ID":12744,"ELEMENT_SET_NO":999,"REV_AT_EPOCH":27588,"BSTAR":0.0016423288,"MEAN_MOTION_DOT":4.377e-5,"MEAN_MOTION_DDOT":0}]
